[{"OBJECT_NAME":"TIANPING-3A 02","OBJECT_ID":"2025-068A","EPOCH":"2026-03-09T20:54:34.712640","MEAN_MOTION":14.85842181,"ECCENTRICITY":0.02320093,"INCLINATION":43.0011,"RA_OF_ASC_NODE":213.5906,"ARG_OF_PERICENTER":358.6421,"MEAN_ANOMALY":1.3764,"EPHEMERIS_TYPE":0,"CLASSIFICATION_TYPE":"U","NORAD_CAT_ID":63432,"ELEMENT_SET_NO":999,"REV_AT_EPOCH":5060,"BSTAR":0.00038259976,"MEAN_MOTION_DOT":5.293e-5,"MEAN_MOTION_DDOT":0},{"OBJECT_NAME":"COSMOS 2251 DEB","OBJECT_ID":"1993-036AGR","EPOCH":"2026-03-05T02:47:56.919264","MEAN_MOTION":14.56657702,"ECCENTRICITY":0.00843571,"INCLINATION":74.0369,"RA_OF_ASC_NODE":114.6475,"ARG_OF_PERICENTER":228.7899,"MEAN_ANOMALY":161.3053,"EPHEMERIS_TYPE":0,"CLASSIFICATION_TYPE":"U","NORAD_CAT_ID":35028,"ELEMENT_SET_NO":999,"REV_AT_EPOCH":89485,"BSTAR":0.00010489854,"MEAN_MOTION_DOT":4.59e-6,"MEAN_MOTION_DDOT":0}]
